#dP2019  2 22  0  0  0.00000000      96 __u+U ITR00 FIT  IAC
## 2041 432000.00000000   900.00000000 58536 0.0000000000000
+   91   C02C03C05C06C07C08C09C10C11C12C13C14C16E01E02E03E04
+        E05E07E08E09E11E12E13E14E15E19E21E24E25E26E27E30E31
+        E33E36G01G02G03G04G05G06G07G08G09G10G11G12G13G14G15
+        G16G17G18G19G20G21G22G23G24G25G26G27G28G29G30G31G32
+        R01R02R03R04R05R07R08R09R10R11R13R14R15R16R17R18R19
+        R20R21R22R23R24R26  0  0  0  0  0  0  0  0  0  0  0
++        12 13 12  8  9  9  8  8  8  8  9  8  8  5  6  5  5
++         6  5  5  6  6  6  5  5  5  6  5  6  6  5  5  5  6
++         6  5  3  4  4  4  4  4  4  3  4  3  4  4  3  4  3
++         4  3  3  3  4  4  4  4  3  4  4  4  3  4  4  4  3
++         5  5  5  5  5  5  5  5  5  6  6  5  5  6  5  5  5
++         5  6  6  6  6  9  0  0  0  0  0  0  0  0  0  0  0
%c M  cc GPS ccc cccc cccc cccc cccc ccccc ccccc ccccc ccccc
%c cc cc ccc ccc cccc cccc cccc cccc ccccc ccccc ccccc ccccc
%f  0.0000000  0.000000000  0.00000000000  0.000000000000000
%f  0.0000000  0.000000000  0.00000000000  0.000000000000000
%i    0    0    0    0      0      0      0      0         0
%i    0    0    0    0      0      0      0      0         0
/*                                                          
/*   RSA / INFORMATION & ANALYSIS CENTER (IAC) OF MCC       
/*   ULTRA-RAPID DETERMINATION                              
/* PCV:IGS14_2038 OL/AL:FES2004  NONE     YN ORB:CoN CLK:CoN
*  2019 02 22  2  0  0.00000000
PC02   4417.783945  41910.911478    -35.649601   -334.670576
PC03 -14703.935495  39525.366432   -560.293447   -177.215662
PC05  21890.792081  36048.929154    213.690216    -42.654453
PC06 -16302.562800  21822.146256  32397.797265    437.165923
PC07 -20528.091595  36965.025025  -3248.005573    134.248476
PC08  -5655.716177  29792.567232 -29068.581804    116.325568
PC09  -1647.417346  24594.386241  34410.839608    551.152764
PC10 -10704.702519  38271.443869 -14502.716634   -514.411055
PC11  19017.525133  18495.480480  -8505.936586    -17.467653
PC12  -7774.520065  13258.902485 -23221.263780    439.120814
PC13   4085.683117  37279.610649 -18966.164596   -555.156520
PC14    397.941219  17352.696421  21901.088730    827.913216
PC16 -14545.749791  21832.160324  32974.388126   -251.919123
PE01  10179.076803  15080.770729 -23349.662173   -547.592355
PE02 -10194.023980 -15057.291501  23356.191926     48.579350
PE03 -20696.791796 -10720.690875 -18253.676577   -136.260986
PE04  29476.631211  -1977.113634   1862.104607   -226.190958
PE05    288.108454 -17230.673836 -24067.416216    103.408710
PE07 -21012.314328  13635.667395  15781.790699   -136.184243
PE08 -29462.961454   2297.442168  -1786.633565   6400.198978
PE09  20886.729921 -13718.746355 -15852.421783   6520.720638
PE11   9603.596353 -14089.976519  24197.552561   5718.996439
PE12  21032.486275   5602.846262  20081.763297   6221.484668
PE13  -9581.817006  13960.074435 -24265.856434    383.297580
PE14  16738.999609  20084.392790 -16966.294851   6441.363429
PE15 -20892.356339  -5187.870830 -20298.205975    919.307114
PE19  18988.018569  11597.439674  19526.098561     -8.218874
PE21  -4350.318219  27358.277131 -10430.945650   -520.714537
PE24  16148.011265 -23478.450005  -8069.683707   6220.781453
PE25   4389.710220 -27371.865327  10383.995595   1886.102489
PE26   7029.376155  25099.041730 -14015.832966   4876.361681
PE27 -16176.975761  23272.297666   8523.805270    524.347036
PE30 -18630.175598   5876.596906  22222.316375   5087.671039
PE31  18489.697764  -5550.716840 -22435.765367    900.527183
PE33  20024.204522  21346.090233   4468.168014    847.972025
PE36  -7357.865549 -24993.610567  14055.537043    744.702898
PG01  14863.022243  -1753.414427  21787.567594   -167.697958
PG02 -14269.299501 -19977.035969  -9755.630914   -146.047180
PG03  21447.770822 -10031.684852  11919.246084    183.991619
PG04   9551.514342 -12728.022442 -21253.412473    119.174249
PG05 -13277.704221  -8377.486136 -21556.364090      1.118058
PG06  -7269.574042 -25531.087936    -68.929355    270.532835
PG07   8870.766028 -16741.004140 -18173.844428     28.003015
PG08  26042.618116   5686.675973    851.020613   -133.643764
PG09  15425.186123 -10244.243306 -19092.467373    455.219678
PG10  -7205.663107  21340.020018  13975.478141    111.910217
PG11  19408.811807   1675.170830  17423.793170   -656.416027
PG12 -21530.514364   7364.832184  13337.732001    265.945088
PG13 -22496.948516 -13005.767942  -5706.055181    -74.128942
PG14  10763.914487  16866.084443  17863.526873    -90.835166
PG15 -26527.947101  -2398.739906   2450.408813   -326.764340
PG16  13264.345560   7765.926064 -21890.571858    -20.791365
PG17   -883.765753 -15558.256287  21931.742262     13.286933
PG18  16637.581294   9055.021104  18194.916024     28.331692
PG19 -10444.518866 -16421.864844  17734.571132   -349.871923
PG20 -13292.994910  22480.980333   4295.213218    522.444502
PG21  -4950.240918  20321.481998 -15633.138016   -245.620828
PG22  19923.968794  -3151.880923  17486.447169   -650.282814
PG23  23947.817613  -2737.425044 -11285.074562   -196.429728
PG24 -16633.953743  -2531.620795  20465.502626    -62.471468
PG25 -19951.970706  16938.985550   3407.021361   -723.806416
PG26   5337.670126  15792.705543 -20651.642536    130.917960
PG27  22040.115924  11986.321773  -9247.420741    -72.330254
PG28   9921.273772 -20732.787393  14000.121383    765.093668
PG29 -19559.527967   5569.236630 -17102.339952    265.074725
PG30   1600.869030 -24555.310076  -9749.590182    -56.740930
PG31   7468.799090  25175.677491  -1682.126507     56.964511
PG32   4497.298612  16130.205855  20684.178022   -214.945830
PR01 -20678.575799  11818.988740   9151.502231     39.792852
PR02  -2690.244855  12000.552949  22375.470518    355.510064
PR03  15251.668050   4964.963249  19886.793292     -8.348666
PR04  24369.082735  -5328.095233   5387.454532    296.088285
PR05  19454.081951 -12016.315486 -11319.439329     22.648421
PR07 -15601.848792  -4704.360087 -19578.656549    -58.392654
PR08 -24276.649471   4936.730096  -6012.618414     18.961014
PR09   1303.556600 -24205.191060   7853.699904     55.534392
PR10  -6333.062343 -14312.765982  20093.163772     42.777695
PR11 -11906.518817   5059.848251  22000.680146    -57.495446
PR13  -1779.959073  24592.536655  -6553.299438    -20.437678
PR14   6670.511683  14331.058622 -20014.279168     36.223290
PR15  11641.617591  -4120.785641 -22304.160259    100.118232
PR16   9742.998269 -20519.377952 -11756.274886     10.982005
PR17  18588.729538  17415.285394   -987.211991    206.510381
PR18  18994.401130   7929.936179  15130.260607     33.406666
PR19   9120.993404  -5699.274235  23137.200574    -61.031308
PR20  -7185.398170 -17429.836800  17169.451307   -369.585661
PR21 -18790.763965 -17261.439131    439.797963    -32.643189
PR22 -17954.228110  -5974.319692 -17024.233943     -5.571756
PR23  -4948.188657   9617.517089 -23102.007068    211.060102
PR24   8797.052668  17817.186858 -16023.911210   -177.463097
PR26  -5700.810656 -16537.613028  18591.276145 999999.999999
EOF
